[{"OBJECT_NAME":"HIBARI","OBJECT_ID":"2021-102F","EPOCH":"2026-03-09T16:55:51.090816","MEAN_MOTION":15.29554512,"ECCENTRICITY":0.00120742,"INCLINATION":97.3381,"RA_OF_ASC_NODE":115.826,"ARG_OF_PERICENTER":186.5211,"MEAN_ANOMALY":173.5875,"EPHEMERIS_TYPE":0,"CLASSIFICATION_TYPE":"U","NORAD_CAT_ID":49400,"ELEMENT_SET_NO":999,"REV_AT_EPOCH":23897,"BSTAR":0.00042758039,"MEAN_MOTION_DOT":0.00012206,"MEAN_MOTION_DDOT":0},{"OBJECT_NAME":"STARLINK-32169","OBJECT_ID":"2024-150G","EPOCH":"2026-03-09T20:50:32.591328","MEAN_MOTION":15.30178264,"ECCENTRICITY":0.00010645,"INCLINATION":53.1609,"RA_OF_ASC_NODE":306.5604,"ARG_OF_PERICENTER":74.7722,"MEAN_ANOMALY":285.3397,"EPHEMERIS_TYPE":0,"CLASSIFICATION_TYPE":"U","NORAD_CAT_ID":60589,"ELEMENT_SET_NO":999,"REV_AT_EPOCH":8806,"BSTAR":2.6104596e-5,"MEAN_MOTION_DOT":4.14e-6,"MEAN_MOTION_DDOT":0}]
